[{"OBJECT_NAME":"BEIDOU-3 M9 (C29)","OBJECT_ID":"2018-029A","EPOCH":"2026-04-25T20:43:36.750720","MEAN_MOTION":1.86228079,"ECCENTRICITY":9.568e-5,"INCLINATION":54.2419,"RA_OF_ASC_NODE":301.7768,"ARG_OF_PERICENTER":83.5736,"MEAN_ANOMALY":276.4348,"EPHEMERIS_TYPE":0,"CLASSIFICATION_TYPE":"U","NORAD_CAT_ID":43245,"ELEMENT_SET_NO":999,"REV_AT_EPOCH":5492,"BSTAR":0,"MEAN_MOTION_DOT":-5.3e-7,"MEAN_MOTION_DDOT":0},{"OBJECT_NAME":"BEIDOU-3 M10 (C30)","OBJECT_ID":"2018-029B","EPOCH":"2026-04-26T20:55:54.611904","MEAN_MOTION":1.86228913,"ECCENTRICITY":0.00048337,"INCLINATION":54.239,"RA_OF_ASC_NODE":301.7693,"ARG_OF_PERICENTER":35.3233,"MEAN_ANOMALY":324.7045,"EPHEMERIS_TYPE":0,"CLASSIFICATION_TYPE":"U","NORAD_CAT_ID":43246,"ELEMENT_SET_NO":999,"REV_AT_EPOCH":5492,"BSTAR":0,"MEAN_MOTION_DOT":-6.1e-7,"MEAN_MOTION_DDOT":0},{"OBJECT_NAME":"IRNSS-1I","OBJECT_ID":"2018-035A","EPOCH":"2026-04-23T23:08:38.874048","MEAN_MOTION":1.00274138,"ECCENTRICITY":0.00183298,"INCLINATION":29.052,"RA_OF_ASC_NODE":75.0297,"ARG_OF_PERICENTER":186.8735,"MEAN_ANOMALY":352.2911,"EPHEMERIS_TYPE":0,"CLASSIFICATION_TYPE":"U","NORAD_CAT_ID":43286,"ELEMENT_SET_NO":999,"REV_AT_EPOCH":2953,"BSTAR":0,"MEAN_MOTION_DOT":8.4e-7,"MEAN_MOTION_DDOT":0},{"OBJECT_NAME":"COSMOS 2527 (756)","OBJECT_ID":"2018-053A","EPOCH":"2026-04-25T23:55:04.352160","MEAN_MOTION":2.13101904,"ECCENTRICITY":0.00086008,"INCLINATION":65.5504,"RA_OF_ASC_NODE":75.647,"ARG_OF_PERICENTER":248.7222,"MEAN_ANOMALY":111.1654,"EPHEMERIS_TYPE":0,"CLASSIFICATION_TYPE":"U","NORAD_CAT_ID":43508,"ELEMENT_SET_NO":999,"REV_AT_EPOCH":6116,"BSTAR":0,"MEAN_MOTION_DOT":1.3e-7,"MEAN_MOTION_DDOT":0},{"OBJECT_NAME":"BEIDOU-2 IGSO-7 (C16)","OBJECT_ID":"2018-057A","EPOCH":"2026-04-23T19:51:45.184320","MEAN_MOTION":1.00267626,"ECCENTRICITY":0.01032717,"INCLINATION":55.1848,"RA_OF_ASC_NODE":163.5332,"ARG_OF_PERICENTER":237.5854,"MEAN_ANOMALY":221.4335,"EPHEMERIS_TYPE":0,"CLASSIFICATION_TYPE":"U","NORAD_CAT_ID":43539,"ELEMENT_SET_NO":999,"REV_AT_EPOCH":2858,"BSTAR":0,"MEAN_MOTION_DOT":-9.9e-7,"MEAN_MOTION_DDOT":0},{"OBJECT_NAME":"GSAT0221 (GALILEO 25)","OBJECT_ID":"2018-060A","EPOCH":"2026-04-24T02:22:56.871840","MEAN_MOTION":1.70475641,"ECCENTRICITY":0.00038477,"INCLINATION":57.1855,"RA_OF_ASC_NODE":343.2419,"ARG_OF_PERICENTER":321.5085,"MEAN_ANOMALY":38.5036,"EPHEMERIS_TYPE":0,"CLASSIFICATION_TYPE":"U","NORAD_CAT_ID":43564,"ELEMENT_SET_NO":999,"REV_AT_EPOCH":4824,"BSTAR":0,"MEAN_MOTION_DOT":-8.8e-7,"MEAN_MOTION_DDOT":0},{"OBJECT_NAME":"GSAT0222 (GALILEO 26)","OBJECT_ID":"2018-060B","EPOCH":"2026-04-25T11:48:29.038464","MEAN_MOTION":1.70475419,"ECCENTRICITY":0.00024131,"INCLINATION":57.1892,"RA_OF_ASC_NODE":343.2075,"ARG_OF_PERICENTER":289.5902,"MEAN_ANOMALY":70.4237,"EPHEMERIS_TYPE":0,"CLASSIFICATION_TYPE":"U","NORAD_CAT_ID":43565,"ELEMENT_SET_NO":999,"REV_AT_EPOCH":4831,"BSTAR":0,"MEAN_MOTION_DOT":-9.0e-7,"MEAN_MOTION_DDOT":0},{"OBJECT_NAME":"GSAT0219 (GALILEO 23)","OBJECT_ID":"2018-060C","EPOCH":"2026-04-23T22:52:39.159264","MEAN_MOTION":1.70475588,"ECCENTRICITY":0.00033517,"INCLINATION":57.1884,"RA_OF_ASC_NODE":343.2507,"ARG_OF_PERICENTER":340.2281,"MEAN_ANOMALY":19.7984,"EPHEMERIS_TYPE":0,"CLASSIFICATION_TYPE":"U","NORAD_CAT_ID":43566,"ELEMENT_SET_NO":999,"REV_AT_EPOCH":4826,"BSTAR":0,"MEAN_MOTION_DOT":-8.8e-7,"MEAN_MOTION_DDOT":0},{"OBJECT_NAME":"GSAT0220 (GALILEO 24)","OBJECT_ID":"2018-060D","EPOCH":"2026-04-24T18:15:44.704512","MEAN_MOTION":1.70475503,"ECCENTRICITY":0.00036445,"INCLINATION":57.1842,"RA_OF_ASC_NODE":343.2275,"ARG_OF_PERICENTER":44.9018,"MEAN_ANOMALY":315.1672,"EPHEMERIS_TYPE":0,"CLASSIFICATION_TYPE":"U","NORAD_CAT_ID":43567,"ELEMENT_SET_NO":999,"REV_AT_EPOCH":4826,"BSTAR":0,"MEAN_MOTION_DOT":-8.9e-7,"MEAN_MOTION_DDOT":0},{"OBJECT_NAME":"BEIDOU-3 M5 (C23)","OBJECT_ID":"2018-062A","EPOCH":"2026-04-24T22:45:52.731936","MEAN_MOTION":1.86228517,"ECCENTRICITY":0.0004252,"INCLINATION":54.0831,"RA_OF_ASC_NODE":184.1144,"ARG_OF_PERICENTER":289.5888,"MEAN_ANOMALY":70.4232,"EPHEMERIS_TYPE":0,"CLASSIFICATION_TYPE":"U","NORAD_CAT_ID":43581,"ELEMENT_SET_NO":999,"REV_AT_EPOCH":5264,"BSTAR":0,"MEAN_MOTION_DOT":-1.1e-7,"MEAN_MOTION_DDOT":0},{"OBJECT_NAME":"BEIDOU-3 M6 (C24)","OBJECT_ID":"2018-062B","EPOCH":"2026-04-25T08:22:06.536928","MEAN_MOTION":1.86227595,"ECCENTRICITY":0.0004888,"INCLINATION":54.0829,"RA_OF_ASC_NODE":184.0898,"ARG_OF_PERICENTER":23.5128,"MEAN_ANOMALY":336.5677,"EPHEMERIS_TYPE":0,"CLASSIFICATION_TYPE":"U","NORAD_CAT_ID":43582,"ELEMENT_SET_NO":999,"REV_AT_EPOCH":5265,"BSTAR":0,"MEAN_MOTION_DOT":-1.0e-7,"MEAN_MOTION_DDOT":0},{"OBJECT_NAME":"BEIDOU-3 M12 (C26)","OBJECT_ID":"2018-067A","EPOCH":"2026-04-24T18:00:11.028096","MEAN_MOTION":1.86227717,"ECCENTRICITY":0.00078775,"INCLINATION":54.1783,"RA_OF_ASC_NODE":182.8527,"ARG_OF_PERICENTER":33.8697,"MEAN_ANOMALY":326.2399,"EPHEMERIS_TYPE":0,"CLASSIFICATION_TYPE":"U","NORAD_CAT_ID":43602,"ELEMENT_SET_NO":999,"REV_AT_EPOCH":5212,"BSTAR":0,"MEAN_MOTION_DOT":-1.0e-7,"MEAN_MOTION_DDOT":0},{"OBJECT_NAME":"BEIDOU-3 M11 (C25)","OBJECT_ID":"2018-067B","EPOCH":"2026-04-23T06:34:47.006688","MEAN_MOTION":1.86227214,"ECCENTRICITY":0.00044769,"INCLINATION":54.1754,"RA_OF_ASC_NODE":182.8665,"ARG_OF_PERICENTER":21.733,"MEAN_ANOMALY":338.3485,"EPHEMERIS_TYPE":0,"CLASSIFICATION_TYPE":"U","NORAD_CAT_ID":43603,"ELEMENT_SET_NO":999,"REV_AT_EPOCH":5212,"BSTAR":0,"MEAN_MOTION_DOT":-5.0e-8,"MEAN_MOTION_DDOT":0},{"OBJECT_NAME":"BEIDOU-3 M13 (C32)","OBJECT_ID":"2018-072A","EPOCH":"2026-04-26T10:49:35.535936","MEAN_MOTION":1.86230936,"ECCENTRICITY":0.00088519,"INCLINATION":56.5817,"RA_OF_ASC_NODE":64.3658,"ARG_OF_PERICENTER":318.422,"MEAN_ANOMALY":41.4817,"EPHEMERIS_TYPE":0,"CLASSIFICATION_TYPE":"U","NORAD_CAT_ID":43622,"ELEMENT_SET_NO":999,"REV_AT_EPOCH":5169,"BSTAR":0,"MEAN_MOTION_DOT":-3.9e-7,"MEAN_MOTION_DDOT":0},{"OBJECT_NAME":"BEIDOU-3 M14 (C33)","OBJECT_ID":"2018-072B","EPOCH":"2026-04-24T16:56:11.825088","MEAN_MOTION":1.86231012,"ECCENTRICITY":0.00069215,"INCLINATION":56.5822,"RA_OF_ASC_NODE":64.4176,"ARG_OF_PERICENTER":342.3518,"MEAN_ANOMALY":17.5993,"EPHEMERIS_TYPE":0,"CLASSIFICATION_TYPE":"U","NORAD_CAT_ID":43623,"ELEMENT_SET_NO":999,"REV_AT_EPOCH":5165,"BSTAR":0,"MEAN_MOTION_DOT":-2.4e-7,"MEAN_MOTION_DDOT":0},{"OBJECT_NAME":"BEIDOU-3 M16 (C35)","OBJECT_ID":"2018-078A","EPOCH":"2026-04-26T11:20:40.521408","MEAN_MOTION":1.86232303,"ECCENTRICITY":0.00081183,"INCLINATION":54.138,"RA_OF_ASC_NODE":301.798,"ARG_OF_PERICENTER":38.5073,"MEAN_ANOMALY":321.5472,"EPHEMERIS_TYPE":0,"CLASSIFICATION_TYPE":"U","NORAD_CAT_ID":43647,"ELEMENT_SET_NO":999,"REV_AT_EPOCH":5119,"BSTAR":0,"MEAN_MOTION_DOT":-5.8e-7,"MEAN_MOTION_DDOT":0},{"OBJECT_NAME":"BEIDOU-3 M15 (C34)","OBJECT_ID":"2018-078B","EPOCH":"2026-04-26T14:26:53.153376","MEAN_MOTION":1.86232072,"ECCENTRICITY":0.0005208,"INCLINATION":54.1328,"RA_OF_ASC_NODE":301.7937,"ARG_OF_PERICENTER":50.2977,"MEAN_ANOMALY":309.7445,"EPHEMERIS_TYPE":0,"CLASSIFICATION_TYPE":"U","NORAD_CAT_ID":43648,"ELEMENT_SET_NO":999,"REV_AT_EPOCH":5121,"BSTAR":0,"MEAN_MOTION_DOT":-5.9e-7,"MEAN_MOTION_DDOT":0}]
